{
 "cells": [
  {
   "cell_type": "markdown",
   "id": "c103e4cf-3740-4b20-bbc4-ee84e5439903",
   "metadata": {},
   "source": [
    "# 如何用Astroquery取得Minor Planet Center提供的彗星觀測資料？"
   ]
  },
  {
   "cell_type": "markdown",
   "id": "6699a212-78cc-4e46-8341-b6e70c5486bf",
   "metadata": {},
   "source": [
    "## 什麼是Minor Planet Center？\n",
    "[Minor Planet Center](https://minorplanetcenter.net/iau/mpc.html)是一個國際天文組織 ，專門負責收集、維護和發布彗星及小行星等太陽系小天體的運行軌跡相關數據，例如它們的軌道參數、位置和速度。"
   ]
  },
  {
   "cell_type": "markdown",
   "id": "3e3ad215-6eb4-4f10-ba0a-3963b8217bb5",
   "metadata": {},
   "source": [
    "## 安裝Astroquery\n",
    "[Astroquery](https://astroquery.readthedocs.io/en/latest/)套件提供多個模組，能連接不同的天文資料庫服務以取得相關資料，其中的[astroquery.mpc](https://astroquery.readthedocs.io/en/latest/mpc/mpc.html)這個模組，是用於取得Minor Planet Center提供的資料。"
   ]
  },
  {
   "cell_type": "code",
   "execution_count": null,
   "id": "6dc70744-dbed-4dd7-83c6-1bf048feed97",
   "metadata": {
    "tags": []
   },
   "outputs": [],
   "source": [
    "!pip install --pre astroquery"
   ]
  },
  {
   "cell_type": "markdown",
   "id": "98e6e18d-85f1-4b65-b3dd-962b58a7ee01",
   "metadata": {},
   "source": [
    "## astroquery.mpc模組有哪些資料查詢功能？\n",
    "* [MPC.query_object()](https://astroquery.readthedocs.io/en/latest/api/astroquery.mpc.MPCClass.html#astroquery.mpc.MPCClass.query_object)可連結到[Minor Planet Center Web Service](https://minorplanetcenter.net/web_service/)，以便取得某個彗星或小行星的[軌道參數](https://zh.wikipedia.org/zh-tw/%E8%BB%8C%E9%81%93%E6%A0%B9%E6%95%B8)資訊，例如軌道傾角、半長軸、離心率等等。\n",
    "* [MPC.get_observations()](https://astroquery.readthedocs.io/en/latest/api/astroquery.mpc.MPCClass.html#astroquery.mpc.MPCClass.get_observations)能從[Minor Planet Center Observations Database](https://minorplanetcenter.net/db_search)查詢出彗星或小行星被某個天文台觀測到的時間、在天空上的座標位置及亮度。\n",
    "* [MPC.get_observatory_codes()](https://astroquery.readthedocs.io/en/latest/api/astroquery.mpc.MPCClass.html#astroquery.mpc.MPCClass.get_observatory_codes)可得知天文台的編碼。\n",
    "* [MPC.get_ephemeris()](https://astroquery.readthedocs.io/en/latest/api/astroquery.mpc.MPCClass.html#astroquery.mpc.MPCClass.get_ephemeris)會從[Minor Planet Ephemeris Service](https://www.minorplanetcenter.net/iau/MPEph/MPEph.html)取得彗星或小行星的[星曆表(ephemeris)](https://zh.wikipedia.org/zh-tw/%E6%98%9F%E6%9B%86%E8%A1%A8)資料，可得知這些天體未來的位置和軌跡。"
   ]
  },
  {
   "cell_type": "markdown",
   "id": "ec9a1f6a-e71a-44c7-b04d-0feac6b546d8",
   "metadata": {},
   "source": [
    "## 範例：取得C/2007 N3和C/2022 E3兩個彗星的資料\n",
    "[C/2007 N3](https://zh.wikipedia.org/zh-tw/%E9%B9%BF%E6%9E%97%E5%BD%97%E6%98%9F)是由台灣[鹿林天文台](https://zh.wikipedia.org/zh-tw/%E9%B9%BF%E6%9E%97%E5%A4%A9%E6%96%87%E5%8F%B0)所發現的彗星，也稱為鹿林彗星。[C/2022 E3](https://zh.wikipedia.org/zh-tw/C/2022_E3_(ZTF))是由[Zwicky Transient Facility](https://en.wikipedia.org/wiki/Zwicky_Transient_Facility)所發現的彗星。"
   ]
  },
  {
   "cell_type": "code",
   "execution_count": 1,
   "id": "6e77f49a-3ecc-4759-8795-13abf39cb254",
   "metadata": {
    "tags": []
   },
   "outputs": [
    {
     "name": "stdout",
     "output_type": "stream",
     "text": [
      "C/2007 N3 的軌道參數資料：\n",
      "[{'aphelion_distance': '2468.239', 'argument_of_perihelion': '136.7162', 'ascending_node': '338.5097089', 'computer_name': 'MPCW', 'created_at': '2013-03-09T18:02:56Z', 'designation': 'C/2007 N3', 'earth_moid': None, 'eccentricity': '0.9990195', 'epoch': '2013-04-18.0', 'epoch_jd': '2456400.5', 'first_observation_date_used': '2007-07-11.0', 'fragment': None, 'inclination': '178.37412', 'is_standard_epoch': True, 'jupiter_moid': None, 'last_observation_date_used': '2011-01-01.0', 'mars_moid': None, 'mean_anomaly': '0.03543', 'mean_daily_motion': '0.00002272', 'mercury_moid': None, 'moid_orbit_epoch': None, 'moid_reference': None, 'n_or_d': 'K07N030', 'neptune_moid': None, 'non_grav_a1': None, 'non_grav_a2': None, 'non_grav_a3': None, 'non_grav_style': None, 'number': None, 'number_dp': 5, 'object_type': 'C', 'observations': 3598, 'one_line_format': None, 'orbit_quality_code': '1A', 'origin': 0, 'p_vector_x': '-0.9284268', 'p_vector_y': '-0.34812907', 'p_vector_z': '-0.12972984', 'packed_designation': 'CK07N030', 'perihelion_date': '2009-01-09.25596', 'perihelion_date_jd': '2454840.75596', 'perihelion_distance': '1.2106008', 'period': '43386.57', 'perturbers_coarse_indicator': 'M-v', 'perturbers_precise_indicator': '0038h', 'q_vector_x': '-0.37136995', 'q_vector_y': '0.85987348', 'q_vector_z': '0.35028839', 'recip_semimajor_axis_err': '0.0000001', 'recip_semimajor_axis_fut': '0.00082541', 'recip_semimajor_axis_orig': '0.00003129', 'reference': 'MPC  73461', 'residual_rms': '0.5', 'saturn_moid': None, 'semimajor_axis': '1234.7248205', 'tisserand_jupiter': None, 'updated_at': '2013-03-09T18:02:56Z', 'uranus_moid': None, 'venus_moid': None}]\n",
      "C/2007 N3 的觀測資料：\n",
      "number comettype note1  desig  note2     epoch             RA                DEC         mag  phottype observatory\n",
      "                                           d              deg                deg         mag                      \n",
      "------ --------- ----- ------- ----- ------------- ------------------ ------------------ ---- -------- -----------\n",
      "    --         C    -- 2007 N3     C 2454293.27867 338.39641666666665 -8.777444444444445 18.9        N         D35\n",
      "    --         C    -- 2007 N3     C 2454293.28745  338.3950833333333  -8.77788888888889 19.1        N         D35\n",
      "    --         C    -- 2007 N3     C 2454293.29627 338.39399999999995 -8.778361111111112 19.7        N         D35\n",
      "    --         C    -- 2007 N3     C 2454294.58984  338.2112916666667 -8.847666666666667  ———       --         470\n",
      "    --         C    -- 2007 N3     C 2454294.59417 338.21066666666667 -8.847916666666666 18.5        N         470\n",
      "    --         C    -- 2007 N3     C 2454295.06539  338.1429166666666 -8.872972222222222 18.8        N         474\n",
      "    --         C    -- 2007 N3     C 2454295.07106  338.1420833333333 -8.873305555555556 18.8        N         474\n",
      "    --         C    -- 2007 N3     C 2454295.07569         338.141375 -8.873527777777777 18.7        N         474\n",
      "    --         C    -- 2007 N3     C 2454295.24807  338.1164583333333 -8.883527777777777 20.4        N         D35\n",
      "    --         C    -- 2007 N3     C 2454295.25053  338.1162083333333 -8.883555555555555 19.8        N         D35\n",
      "    --         C    -- 2007 N3     C  2454295.2515  338.1160833333333 -8.883722222222222 19.5        N         D35\n",
      "    --         C    -- 2007 N3     C 2454295.25247 338.11579166666667 -8.883722222222222 19.3        N         D35\n",
      "    --         C    -- 2007 N3     C 2454295.25872  338.1148333333333 -8.884166666666665 19.0        N         D35\n",
      "    --         C    -- 2007 N3     C 2454295.26251 338.11429166666665  -8.88438888888889 19.3        N         D35\n",
      "   ...       ...   ...     ...   ...           ...                ...                ...  ...      ...         ...\n",
      "    --         C    -- 2007 N3     C 2455263.32825           66.91825 20.143833333333333 18.7        N         B82\n",
      "    --         C    -- 2007 N3     C 2455263.33263  66.91833333333332 20.143305555555553 18.6        N         B82\n",
      "    --         C    -- 2007 N3     C 2455263.35595          66.917875 20.143333333333334 18.5        T         215\n",
      "    --         C    -- 2007 N3     C 2455263.35665  66.91795833333333 20.143472222222222 17.9        T         215\n",
      "    --         C    -- 2007 N3     C 2455263.35736  66.91799999999999 20.143305555555553 18.4        T         215\n",
      "    --         C    -- 2007 N3     C 2455267.26973  66.89937499999999 20.160416666666666 18.7        N         B82\n",
      "    --         C    -- 2007 N3     C 2455267.29797  66.89945833333333  20.16038888888889 18.6        N         B82\n",
      "    --         C    -- 2007 N3     C 2455267.34036  66.89912499999998 20.160638888888887 18.5        N         B82\n",
      "    --         C    -- 2007 N3     C 2455457.47326  78.54241666666667 21.350972222222225 20.6        N         C32\n",
      "    --         C    -- 2007 N3     C 2455471.66675  77.37674999999999 21.198583333333335 19.7        N         A77\n",
      "    --         C    -- 2007 N3     C 2455471.67348  77.37570833333332 21.199305555555554 20.7        N         A77\n",
      "    --         C     K 2007 N3     C 2455563.31593 62.057541666666665 19.112638888888892 20.6        N         A77\n",
      "    --         C     K 2007 N3     C 2455563.33386  62.05508333333333 19.112222222222222 21.0        N         A77\n",
      "    --         C     K 2007 N3     C 2455563.35176 62.052458333333334 19.111583333333336 20.9        N         A77\n",
      "Length = 3951 rows\n",
      "C/2007 N3 的星曆表：\n",
      "          Date                  RA                Dec         Delta    r    Elongation ... Altitude Sun altitude Moon phase Moon distance Moon altitude\n",
      "                               deg                deg           AU     AU      deg     ...   deg        deg                      deg           deg     \n",
      "----------------------- ------------------ ------------------ ------ ------ ---------- ... -------- ------------ ---------- ------------- -------------\n",
      "2023-03-18 01:02:56.000             40.855            14.3125 32.381 31.698       46.0 ...        7           40       0.18            97            43\n",
      "2023-03-19 01:02:56.000  40.87416666666667 14.318888888888889 32.398 31.703       45.0 ...        7           40        0.1            82            46\n",
      "2023-03-20 01:02:56.000           40.89375 14.325555555555555 32.415 31.707       44.1 ...        8           40       0.04            67            46\n",
      "2023-03-21 01:02:56.000           40.91375 14.332222222222223 32.431 31.711       43.1 ...        9           41       0.01            52            43\n",
      "2023-03-22 01:02:56.000  40.93416666666666  14.33888888888889 32.447 31.715       42.1 ...       10           41        0.0            38            37\n",
      "2023-03-23 01:02:56.000  40.95499999999999 14.345833333333333 32.463 31.719       41.2 ...       11           41       0.02            24            29\n",
      "2023-03-24 01:02:56.000 40.975833333333334 14.352777777777778 32.479 31.724       40.2 ...       12           41       0.07            10            21\n",
      "2023-03-25 01:02:56.000  40.99708333333333              14.36 32.494 31.728       39.2 ...       13           42       0.14             5            12\n",
      "2023-03-26 01:02:56.000           41.01875 14.366944444444444 32.509 31.732       38.2 ...       14           42       0.22            17             3\n",
      "2023-03-27 01:02:56.000  41.04041666666666 14.374166666666667 32.524 31.736       37.3 ...       14           42       0.31            30            -6\n",
      "2023-03-28 01:02:56.000  41.06291666666666 14.381388888888889 32.539 31.741       36.3 ...       15           42        0.4            42           -14\n",
      "2023-03-29 01:02:56.000  41.08541666666666  14.38888888888889 32.554 31.745       35.3 ...       16           43        0.5            54           -23\n",
      "2023-03-30 01:02:56.000  41.10791666666666  14.39611111111111 32.568 31.749       34.4 ...       17           43       0.59            66           -30\n",
      "2023-03-31 01:02:56.000 41.131249999999994 14.403611111111111 32.582 31.753       33.4 ...       18           43       0.68            78           -38\n",
      "2023-04-01 01:02:56.000  41.15458333333333 14.411111111111111 32.596 31.757       32.5 ...       19           43       0.77            90           -44\n",
      "2023-04-02 01:02:56.000  41.17791666666666 14.418888888888889 32.609 31.762       31.5 ...       20           44       0.84           102           -49\n",
      "2023-04-03 01:02:56.000  41.20166666666667 14.426388888888889 32.623 31.766       30.5 ...       21           44        0.9           114           -52\n",
      "2023-04-04 01:02:56.000  41.22583333333333 14.434166666666666 32.636  31.77       29.6 ...       21           44       0.95           126           -52\n",
      "2023-04-05 01:02:56.000  41.24999999999999 14.441944444444445 32.649 31.774       28.6 ...       22           44       0.99           138           -50\n",
      "2023-04-06 01:02:56.000  41.27458333333333              14.45 32.661 31.778       27.7 ...       23           45        1.0           151           -45\n",
      "2023-04-07 01:02:56.000 41.299583333333324 14.457777777777777 32.674 31.783       26.7 ...       24           45       0.99           163           -38\n",
      "\n",
      "\n",
      "C/2022 E3 的軌道參數資料：\n",
      "[{'aphelion_distance': None, 'argument_of_perihelion': '145.81575', 'ascending_node': '302.5556695', 'computer_name': 'Rudenko', 'created_at': '2023-03-06T22:05:49Z', 'designation': 'C/2022 E3', 'earth_moid': None, 'eccentricity': '1.0003223', 'epoch': '2023-02-25.0', 'epoch_jd': '2460000.5', 'first_observation_date_used': '2021-07-10.0', 'fragment': None, 'inclination': '109.16851', 'is_standard_epoch': None, 'jupiter_moid': None, 'last_observation_date_used': '2023-03-06.0', 'mars_moid': None, 'mean_anomaly': None, 'mean_daily_motion': None, 'mercury_moid': None, 'moid_orbit_epoch': None, 'moid_reference': None, 'n_or_d': 'K22E030', 'neptune_moid': None, 'non_grav_a1': None, 'non_grav_a2': None, 'non_grav_a3': None, 'non_grav_style': None, 'number': None, 'number_dp': 5, 'object_type': 'C', 'observations': 7116, 'one_line_format': '    CK22E030K231C785231914581575143025556695109168510011122475571000322287 K232PZTF                          Rudenko     2023      7.5 10           23 Jan. 12.7852  E2023-E49   7116  K217A K2336 k M-v 003E 9              0.0000003+0.000769 -0.000021   0.6', 'orbit_quality_code': None, 'origin': 0, 'p_vector_x': '-0.60064663', 'p_vector_y': '0.33753036', 'p_vector_z': '0.72477368', 'packed_designation': 'CK22E030', 'perihelion_date': '2023-01-12.7852318981481482', 'perihelion_date_jd': '2459957.28523', 'perihelion_distance': '1.1122476', 'period': None, 'perturbers_coarse_indicator': 'M-v', 'perturbers_precise_indicator': '003Ek', 'q_vector_x': '-0.07340467', 'q_vector_y': '0.87940728', 'q_vector_z': '-0.47037707', 'recip_semimajor_axis_err': '0.0000003', 'recip_semimajor_axis_fut': '-0.000021', 'recip_semimajor_axis_orig': '0.000769', 'reference': 'E2023-E49', 'residual_rms': '0.6', 'saturn_moid': None, 'semimajor_axis': None, 'tisserand_jupiter': None, 'updated_at': '2023-03-06T22:05:49Z', 'uranus_moid': None, 'venus_moid': None}]\n",
      "C/2022 E3 的觀測資料：\n",
      "number comettype note1  desig  note2     epoch              RA                 DEC          mag  phottype observatory\n",
      "                                           d               deg                 deg          mag                      \n",
      "------ --------- ----- ------- ----- -------------- ------------------ ------------------- ----- -------- -----------\n",
      "    --         C    -- 2022 E3     C 2459405.858923  298.1847208333333  -4.116533333333333 23.01        G         F51\n",
      "    --         C    -- 2022 E3     C 2459405.883771  298.1798208333333  -4.116138888888888 23.12        G         F51\n",
      "    --         C     Z 2022 E3     C 2459512.671013  284.8462083333333  -5.124833333333333  20.5        g         I41\n",
      "    --         C     Z 2022 E3     C 2459522.667166 285.15537499999994  -5.161305555555556  20.0        r         I41\n",
      "    --         C     Z 2022 E3     C 2459524.577487  285.2444166666666  -5.160916666666667  20.1        r         I41\n",
      "    --         C     Z 2022 E3     C 2459527.609151  285.4039166666666  -5.155027777777778  20.4        r         I41\n",
      "    --         C     Z 2022 E3     C 2459527.643286 285.40595833333333  -5.154777777777778  20.3        g         I41\n",
      "    --         C     Z 2022 E3     C  2459529.62788 285.52270833333336  -5.147083333333334  20.0        r         I41\n",
      "    --         C    -- 2022 E3     C  2459641.04453 299.76458333333335  1.8217777777777777 17.29        r         I41\n",
      "    --         C    -- 2022 E3     C    2459641.047         299.764875   1.822138888888889  17.3        r         I41\n",
      "    --         C    -- 2022 E3     C  2459641.04948  299.7652083333333  1.8224722222222223 17.31        r         I41\n",
      "    --         C    -- 2022 E3     C 2459641.051959 299.76554166666665  1.8227777777777778 17.31        r         I41\n",
      "    --         C    -- 2022 E3     C 2459641.054431         299.765875  1.8231388888888889 17.26        r         I41\n",
      "    --         C     | 2022 E3     C  2459642.01802 299.88962499999997  1.9550277777777778   ———       --         H06\n",
      "   ...       ...   ...     ...   ...            ...                ...                 ...   ...      ...         ...\n",
      "    --         C    -- 2022 E3     C  2460008.27236  69.78020833333332 -0.5860833333333334  12.5        G         M14\n",
      "    --         C    -- 2022 E3     C  2460008.28683  69.78091666666666            -0.59275  13.0        G         M14\n",
      "    --         C    -- 2022 E3     C  2460008.30022  69.78166666666665 -0.5989166666666667  12.8        G         M14\n",
      "    --         C     1 2022 E3     C 2460008.672345  69.80785416666666 -0.7679888888888889   9.7        G         703\n",
      "    --         C     1 2022 E3     C 2460008.677761  69.80821666666667 -0.7704000000000001  9.68        G         703\n",
      "    --         C     1 2022 E3     C 2460008.683175  69.80857499999999 -0.7728305555555556  9.67        G         703\n",
      "    --         C     1 2022 E3     C 2460008.688596  69.80877083333333 -0.7752888888888889  9.82        G         703\n",
      "    --         C    -- 2022 E3     C  2460009.32079  69.85083333333333            -1.05475  12.2        N         J38\n",
      "    --         C    -- 2022 E3     C  2460009.32475  69.85104166666667 -1.0564444444444445  12.2        N         J38\n",
      "    --         C    -- 2022 E3     C   2460009.3274  69.85125000000001 -1.0575555555555556  12.2        N         J38\n",
      "    --         C    -- 2022 E3     C 2460009.555901  69.86697083333334 -1.1533694444444444 12.48        o         W68\n",
      "    --         C    -- 2022 E3     C 2460009.559527  69.86727083333332 -1.1548888888888889  11.5        o         W68\n",
      "    --         C    -- 2022 E3     C 2460009.569508  69.86795833333333            -1.15915 11.46        o         W68\n",
      "    --         C    -- 2022 E3     C 2460009.587794  69.86912916666665 -1.1669694444444445  11.4        o         W68\n",
      "Length = 7082 rows\n",
      "C/2022 E3 的星曆表：\n",
      "          Date                  RA                Dec         Delta   r   Elongation ... Altitude Sun altitude Moon phase Moon distance Moon altitude\n",
      "                               deg                deg           AU    AU     deg     ...   deg        deg                      deg           deg     \n",
      "----------------------- ----------------- ------------------- ----- ----- ---------- ... -------- ------------ ---------- ------------- -------------\n",
      "2023-03-18 01:02:58.000 71.08166666666666  -4.986111111111112 1.441 1.507       73.9 ...      -29           40       0.18           116            43\n",
      "2023-03-19 01:02:58.000 71.20833333333333  -5.221666666666667 1.469 1.517       73.2 ...      -28           40        0.1           103            46\n",
      "2023-03-20 01:02:58.000 71.33833333333332  -5.448611111111111 1.497 1.528       72.4 ...      -27           40       0.04            91            46\n",
      "2023-03-21 01:02:58.000          71.47125  -5.667222222222223 1.525 1.538       71.7 ...      -27           41       0.01            78            43\n",
      "2023-03-22 01:02:58.000 71.60749999999999  -5.878055555555556 1.553 1.548       71.0 ...      -26           41        0.0            66            37\n",
      "2023-03-23 01:02:58.000 71.74624999999999  -6.081666666666666 1.581 1.559       70.3 ...      -25           41       0.02            55            29\n",
      "2023-03-24 01:02:58.000 71.88833333333332  -6.278611111111111 1.609 1.569       69.6 ...      -25           41       0.07            45            21\n",
      "2023-03-25 01:02:58.000 72.03249999999998  -6.469444444444445 1.636  1.58       68.9 ...      -24           42       0.14            37            12\n",
      "2023-03-26 01:02:58.000 72.17958333333333  -6.654722222222222 1.663  1.59       68.2 ...      -23           42       0.22            33             3\n",
      "2023-03-27 01:02:58.000 72.32916666666665  -6.834444444444444  1.69 1.601       67.5 ...      -22           42       0.31            32            -6\n",
      "2023-03-28 01:02:58.000 72.48083333333331  -7.009166666666666 1.717 1.611       66.8 ...      -22           42        0.4            36           -14\n",
      "2023-03-29 01:02:58.000 72.63499999999999  -7.179166666666667 1.744 1.622       66.2 ...      -21           43        0.5            43           -23\n",
      "2023-03-30 01:02:58.000 72.79124999999998  -7.344722222222222 1.771 1.633       65.5 ...      -20           43       0.59            51           -30\n",
      "2023-03-31 01:02:58.000 72.94999999999999  -7.506388888888889 1.797 1.644       64.9 ...      -20           43       0.68            60           -38\n",
      "2023-04-01 01:02:58.000 73.11041666666667 -7.6641666666666675 1.823 1.654       64.2 ...      -19           43       0.77            69           -44\n",
      "2023-04-02 01:02:58.000 73.27291666666665  -7.818333333333333 1.849 1.665       63.6 ...      -18           44       0.84            79           -49\n",
      "2023-04-03 01:02:58.000 73.43749999999999  -7.969444444444445 1.875 1.676       62.9 ...      -18           44        0.9            89           -52\n",
      "2023-04-04 01:02:58.000 73.60374999999999  -8.117222222222223   1.9 1.687       62.3 ...      -17           44       0.95            99           -52\n",
      "2023-04-05 01:02:58.000 73.77208333333333  -8.262222222222222 1.926 1.698       61.7 ...      -16           44       0.99           109           -50\n",
      "2023-04-06 01:02:58.000 73.94166666666666  -8.404722222222222 1.951 1.709       61.1 ...      -15           45        1.0           119           -45\n",
      "2023-04-07 01:02:58.000 74.11333333333333  -8.544722222222221 1.976  1.72       60.5 ...      -15           45       0.99           128           -38\n",
      "\n",
      "\n"
     ]
    }
   ],
   "source": [
    "from astroquery.mpc import MPC\n",
    "\n",
    "# 用get_observatory_codes()取得鹿林天文台的編碼\n",
    "observatory_codes = MPC.get_observatory_codes()\n",
    "lulin_obs_code = observatory_codes[observatory_codes['Name'] == 'Lulin Observatory']['Code'][0]\n",
    "\n",
    "# 要查詢的彗星列表\n",
    "comets = ['C/2007 N3', 'C/2022 E3']\n",
    "\n",
    "for comet in comets:\n",
    "    # 使用 query_object()查詢彗星的軌道參數資料\n",
    "    comet_orbital_data = MPC.query_object('comet', designation=comet)\n",
    "    print(f'{comet} 的軌道參數資料：')\n",
    "    print(comet_orbital_data)\n",
    "\n",
    "    # 使用 get_observations()查詢彗星的觀測資料\n",
    "    comet_observations = MPC.get_observations(comet)\n",
    "    print(f'{comet} 的觀測資料：')\n",
    "    print(comet_observations)\n",
    "\n",
    "    # 使用 get_ephemeris()取得彗星的星曆表，觀測地點指定在鹿林天文台\n",
    "    comet_ephemeris = MPC.get_ephemeris(target=comet, location=lulin_obs_code)\n",
    "    print(f'{comet} 的星曆表：')\n",
    "    print(comet_ephemeris)\n",
    "    print('\\n')"
   ]
  }
 ],
 "metadata": {
  "kernelspec": {
   "display_name": "Python 3 (ipykernel)",
   "language": "python",
   "name": "python3"
  },
  "language_info": {
   "codemirror_mode": {
    "name": "ipython",
    "version": 3
   },
   "file_extension": ".py",
   "mimetype": "text/x-python",
   "name": "python",
   "nbconvert_exporter": "python",
   "pygments_lexer": "ipython3",
   "version": "3.10.9"
  }
 },
 "nbformat": 4,
 "nbformat_minor": 5
}
